CCSDS_OMM_VERS = 2.0
CREATION_DATE  = 
ORIGINATOR     = 

OBJECT_NAME    = ISS OBJECT XW
OBJECT_ID      = 1998-067XW
CENTER_NAME    = EARTH
REF_FRAME      = TEME
TIME_SYSTEM    = UTC
MEAN_ELEMENT_THEORY = SGP/SGP4

EPOCH          = 2026-02-26T08:27:49.521600
MEAN_MOTION    = 15.65404578
ECCENTRICITY   = .00043406
INCLINATION    = 51.6265
RA_OF_ASC_NODE = 123.1933
ARG_OF_PERICENTER = 27.6872
MEAN_ANOMALY   = 332.4354

EPHEMERIS_TYPE = 0
CLASSIFICATION_TYPE = U
NORAD_CAT_ID   = 66910
ELEMENT_SET_NO = 999
REV_AT_EPOCH   = 1340
BSTAR          = .10923762E-2
MEAN_MOTION_DOT = .112245E-2
MEAN_MOTION_DDOT = 0

CCSDS_OMM_VERS = 2.0
CREATION_DATE  = 
ORIGINATOR     = 

OBJECT_NAME    = ISS OBJECT XX
OBJECT_ID      = 1998-067XX
CENTER_NAME    = EARTH
REF_FRAME      = TEME
TIME_SYSTEM    = UTC
MEAN_ELEMENT_THEORY = SGP/SGP4

EPOCH          = 2026-02-26T10:59:54.750912
MEAN_MOTION    = 15.70039682
ECCENTRICITY   = .00065009
INCLINATION    = 51.6219
RA_OF_ASC_NODE = 121.6389
ARG_OF_PERICENTER = 20.9484
MEAN_ANOMALY   = 339.1779

EPHEMERIS_TYPE = 0
CLASSIFICATION_TYPE = U
NORAD_CAT_ID   = 66911
ELEMENT_SET_NO = 999
REV_AT_EPOCH   = 1342
BSTAR          = .15288944E-2
MEAN_MOTION_DOT = .19206E-2
MEAN_MOTION_DDOT = 0

CCSDS_OMM_VERS = 2.0
CREATION_DATE  = 
ORIGINATOR     = 

OBJECT_NAME    = ISS OBJECT XY
OBJECT_ID      = 1998-067XY
CENTER_NAME    = EARTH
REF_FRAME      = TEME
TIME_SYSTEM    = UTC
MEAN_ELEMENT_THEORY = SGP/SGP4

EPOCH          = 2026-02-26T09:20:34.928160
MEAN_MOTION    = 15.61500650
ECCENTRICITY   = .00023313
INCLINATION    = 51.6278
RA_OF_ASC_NODE = 124.1991
ARG_OF_PERICENTER = 32.3075
MEAN_ANOMALY   = 327.8061

EPHEMERIS_TYPE = 0
CLASSIFICATION_TYPE = U
NORAD_CAT_ID   = 66912
ELEMENT_SET_NO = 999
REV_AT_EPOCH   = 1338
BSTAR          = .90108232E-3
MEAN_MOTION_DOT = .78937E-3
MEAN_MOTION_DDOT = 0

CCSDS_OMM_VERS = 2.0
CREATION_DATE  = 
ORIGINATOR     = 

OBJECT_NAME    = ISS OBJECT XZ
OBJECT_ID      = 1998-067XZ
CENTER_NAME    = EARTH
REF_FRAME      = TEME
TIME_SYSTEM    = UTC
MEAN_ELEMENT_THEORY = SGP/SGP4

EPOCH          = 2026-02-26T13:59:54.655872
MEAN_MOTION    = 15.50854175
ECCENTRICITY   = .00097756
INCLINATION    = 51.6313
RA_OF_ASC_NODE = 126.9935
ARG_OF_PERICENTER = 149.0473
MEAN_ANOMALY   = 211.1094

EPHEMERIS_TYPE = 0
CLASSIFICATION_TYPE = U
NORAD_CAT_ID   = 67683
ELEMENT_SET_NO = 999
REV_AT_EPOCH   = 306
BSTAR          = .69810786E-3
MEAN_MOTION_DOT = .40888E-3
MEAN_MOTION_DDOT = 0

CCSDS_OMM_VERS = 2.0
CREATION_DATE  = 
ORIGINATOR     = 

OBJECT_NAME    = GXIBA-1
OBJECT_ID      = 1998-067YA
CENTER_NAME    = EARTH
REF_FRAME      = TEME
TIME_SYSTEM    = UTC
MEAN_ELEMENT_THEORY = SGP/SGP4

EPOCH          = 2026-02-26T13:41:26.742624
MEAN_MOTION    = 15.52453844
ECCENTRICITY   = .00112326
INCLINATION    = 51.6306
RA_OF_ASC_NODE = 126.9092
ARG_OF_PERICENTER = 140.1266
MEAN_ANOMALY   = 220.0551

EPHEMERIS_TYPE = 0
CLASSIFICATION_TYPE = U
NORAD_CAT_ID   = 67684
ELEMENT_SET_NO = 999
REV_AT_EPOCH   = 306
BSTAR          = .11547598E-2
MEAN_MOTION_DOT = .72297E-3
MEAN_MOTION_DDOT = 0

CCSDS_OMM_VERS = 2.0
CREATION_DATE  = 
ORIGINATOR     = 

OBJECT_NAME    = CORAL
OBJECT_ID      = 1998-067YB
CENTER_NAME    = EARTH
REF_FRAME      = TEME
TIME_SYSTEM    = UTC
MEAN_ELEMENT_THEORY = SGP/SGP4

EPOCH          = 2026-02-26T13:56:39.515424
MEAN_MOTION    = 15.51107174
ECCENTRICITY   = .00116746
INCLINATION    = 51.6315
RA_OF_ASC_NODE = 126.9792
ARG_OF_PERICENTER = 145.1158
MEAN_ANOMALY   = 215.0598

EPHEMERIS_TYPE = 0
CLASSIFICATION_TYPE = U
NORAD_CAT_ID   = 67685
ELEMENT_SET_NO = 999
REV_AT_EPOCH   = 306
BSTAR          = .75186467E-3
MEAN_MOTION_DOT = .44531E-3
MEAN_MOTION_DDOT = 0

CCSDS_OMM_VERS = 2.0
CREATION_DATE  = 
ORIGINATOR     = 

OBJECT_NAME    = ISS OBJECT YC
OBJECT_ID      = 1998-067YC
CENTER_NAME    = EARTH
REF_FRAME      = TEME
TIME_SYSTEM    = UTC
MEAN_ELEMENT_THEORY = SGP/SGP4

EPOCH          = 2026-02-26T10:47:34.023840
MEAN_MOTION    = 15.51420256
ECCENTRICITY   = .00076243
INCLINATION    = 51.6319
RA_OF_ASC_NODE = 127.6037
ARG_OF_PERICENTER = 113.9025
MEAN_ANOMALY   = 246.2764

EPHEMERIS_TYPE = 0
CLASSIFICATION_TYPE = U
NORAD_CAT_ID   = 67686
ELEMENT_SET_NO = 999
REV_AT_EPOCH   = 304
BSTAR          = .81517693E-3
MEAN_MOTION_DOT = .48819E-3
MEAN_MOTION_DDOT = 0

CCSDS_OMM_VERS = 2.0
CREATION_DATE  = 
ORIGINATOR     = 

OBJECT_NAME    = LEOPARD
OBJECT_ID      = 1998-067YD
CENTER_NAME    = EARTH
REF_FRAME      = TEME
TIME_SYSTEM    = UTC
MEAN_ELEMENT_THEORY = SGP/SGP4

EPOCH          = 2026-02-26T13:58:03.605952
MEAN_MOTION    = 15.50976867
ECCENTRICITY   = .00076939
INCLINATION    = 51.6317
RA_OF_ASC_NODE = 126.9861
ARG_OF_PERICENTER = 117.4122
MEAN_ANOMALY   = 242.7651

EPHEMERIS_TYPE = 0
CLASSIFICATION_TYPE = U
NORAD_CAT_ID   = 67687
ELEMENT_SET_NO = 999
REV_AT_EPOCH   = 298
BSTAR          = .67738893E-3
MEAN_MOTION_DOT = .39802E-3
MEAN_MOTION_DDOT = 0

CCSDS_OMM_VERS = 2.0
CREATION_DATE  = 
ORIGINATOR     = 

OBJECT_NAME    = ISS OBJECT YE
OBJECT_ID      = 1998-067YE
CENTER_NAME    = EARTH
REF_FRAME      = TEME
TIME_SYSTEM    = UTC
MEAN_ELEMENT_THEORY = SGP/SGP4

EPOCH          = 2026-02-26T13:54:37.249920
MEAN_MOTION    = 15.51284687
ECCENTRICITY   = .000761
INCLINATION    = 51.6319
RA_OF_ASC_NODE = 126.9710
ARG_OF_PERICENTER = 114.9063
MEAN_ANOMALY   = 245.2718

EPHEMERIS_TYPE = 0
CLASSIFICATION_TYPE = U
NORAD_CAT_ID   = 67688
ELEMENT_SET_NO = 999
REV_AT_EPOCH   = 298
BSTAR          = .82764105E-3
MEAN_MOTION_DOT = .49335E-3
MEAN_MOTION_DDOT = 0

CCSDS_OMM_VERS = 2.0
CREATION_DATE  = 
ORIGINATOR     = 

OBJECT_NAME    = CREW DRAGON 12
OBJECT_ID      = 2026-031A
CENTER_NAME    = EARTH
REF_FRAME      = TEME
TIME_SYSTEM    = UTC
MEAN_ELEMENT_THEORY = SGP/SGP4

EPOCH          = 2026-02-26T13:00:04.689216
MEAN_MOTION    = 15.48311551
ECCENTRICITY   = .00083443
INCLINATION    = 51.6322
RA_OF_ASC_NODE = 127.4658
ARG_OF_PERICENTER = 135.8715
MEAN_ANOMALY   = 224.2940

EPHEMERIS_TYPE = 0
CLASSIFICATION_TYPE = U
NORAD_CAT_ID   = 67796
ELEMENT_SET_NO = 999
REV_AT_EPOCH   = 55457
BSTAR          = .23065818E-3
MEAN_MOTION_DOT = .11988E-3
MEAN_MOTION_DDOT = 0

